GLOBALSTAR M068 [-]     
1 32266U 07048D   24060.84578510 -.00000092  00000+0  68207-4 0  9996
2 32266  51.9894 305.1100 0001040 126.7313 356.2508 12.62780556757757
GLOBALSTAR M079 [+]     
1 37188U 10054A   24060.48762918 -.00000073  00000+0  17203-3 0  9990
2 37188  52.0029 141.8041 0000519  99.6497 273.4358 12.62267015616631
GLOBALSTAR M074 [+]     
1 37189U 10054B   24060.94499052 -.00000072  00000+0  18001-3 0  9994
2 37189  52.0008 139.8084 0000698 118.0790  53.9037 12.62265804617295
GLOBALSTAR M076 [+]     
1 37190U 10054C   24060.97146031 -.00000075  00000+0  16137-3 0  9996
2 37190  52.0021 139.8572 0000959  84.4719  87.0347 12.62275103617016
GLOBALSTAR M077 [+]     
1 37191U 10054D   24060.87917970 -.00000103  00000+0  62618-5 0  9993
2 37191  52.0065  96.8574 0000534 118.3918  53.5467 12.62270078618115
GLOBALSTAR M075 [+]     
1 37192U 10054E   24060.74830792 -.00000072  00000+0  17763-3 0  9990
2 37192  51.9935 183.0558 0000721 101.7311  75.2574 12.62271129616219
GLOBALSTAR M073 [+]     
1 37193U 10054F   24060.82573176 -.00000096  00000+0  41171-4 0  9997
2 37193  52.0052  96.2755 0000480 103.4220  67.3470 12.62262232618052
GLOBALSTAR M083 [+]     
1 37739U 11033A   24060.68117420 -.00000110  00000+0 -33453-4 0  9993
2 37739  51.9870  46.0935 0000143 113.8500  59.3557 12.62265949587059
GLOBALSTAR M088 [+]     
1 37740U 11033B   24060.93602007 -.00000079  00000+0  13955-3 0  9990
2 37740  51.9747 311.2105 0000526  59.3802 312.9970 12.62265352582638
GLOBALSTAR M091 [+]     
1 37741U 11033C   24060.87015178 -.00000097  00000+0  36984-4 0  9999
2 37741  51.9984 274.1190 0000577  67.7388 305.1186 12.62271826583414
GLOBALSTAR M085 [+]     
1 37742U 11033D   24060.89048492 -.00000093  00000+0  58789-4 0  9990
2 37742  51.9844 225.5133 0000641  90.8702  73.7902 12.62268183584413
GLOBALSTAR M081 [+]     
1 37743U 11033E   24060.91670986 -.00000090  00000+0  77469-4 0  9996
2 37743  51.9932 227.9277 0000706  74.1269  90.2660 12.62270266584074
GLOBALSTAR M089 [+]     
1 37744U 11033F   24060.60654784 -.00000088  00000+0  88481-4 0  9994
2 37744  51.9919 183.1897 0001022  91.5138 281.8711 12.62254671585136
GLOBALSTAR M084 [+]     
1 38040U 11080A   24060.73363579 -.00000100  00000+0  22746-4 0  9996
2 38040  52.0012  49.8373 0000654  89.6461  81.8926 12.62271456562878
GLOBALSTAR M080 [+]     
1 38041U 11080B   24060.90971483 -.00000106  00000+0 -10352-4 0  9992
2 38041  52.0066  50.7427 0000736  76.0319 295.2944 12.62269496563022
GLOBALSTAR M082 [+]     
1 38042U 11080C   24060.56245251 -.00000098  00000+0  32063-4 0  9994
2 38042  52.0103   7.1968 0000242 192.3295 340.5492 12.62266149563684
GLOBALSTAR M092 [+]     
1 38043U 11080D   24060.85244265 -.00000101  00000+0  18062-4 0  9999
2 38043  52.0075  96.6673 0000672 120.1187  50.2784 12.62276876562175
GLOBALSTAR M090 [+]     
1 38044U 11080E   24060.58827741 -.00000090  00000+0  76301-4 0  9993
2 38044  51.9915   1.5360 0000218  79.0610  92.2198 12.62266463563801
GLOBALSTAR M086 [+]     
1 38045U 11080F   24060.61495745 -.00000091  00000+0  70363-4 0  9996
2 38045  51.9927   1.9700 0001125  13.8356 158.0831 12.62267617563759
GLOBALSTAR M097 [+]     
1 39072U 13005A   24060.84106119 -.00000087  00000+0  93402-4 0  9999
2 39072  52.0033 275.3496 0000623  65.1881 294.9051 12.62261256511035
GLOBALSTAR M093 [+]     
1 39073U 13005B   24060.89370203 -.00000090  00000+0  75567-4 0  9998
2 39073  51.9794 269.2489 0000582  59.9948 300.0976 12.62261656510994
GLOBALSTAR M094 [+]     
1 39074U 13005C   24060.65621182 -.00000083  00000+0  11567-3 0  9999
2 39074  51.9944 183.8780 0000592  98.5245 261.5689 12.62263212512575
GLOBALSTAR M096 [+]     
1 39075U 13005D   24060.90699376 -.00000094  00000+0  55978-4 0  9995
2 39075  52.0049 231.2606 0000622  78.6820 281.4116 12.62273100511528
GLOBALSTAR M078 [+]     
1 39076U 13005E   24060.96016120 -.00000160  00000+0 -31440-3 0  9994
2 39076  51.9892 316.2566 0000704 173.9006 186.1869 12.62261151510155
GLOBALSTAR M095 [+]     
1 39077U 13005F   24060.90689176 -.00000081  00000+0  12442-3 0  9998
2 39077  51.9815 313.8476 0000087 110.8844 249.2032 12.62263824510004
GLOBALSTAR M087 [+]     
1 52888U 22064A   24060.76042895 -.00000101  00000+0  51537-4 0  9995
2 52888  51.9737 226.4583 0010312  89.9223 270.2860 13.37566341 83011
